{
    "links": {
        "self": "http://www.neowsapp.com/rest/v1/neo/3856708?api_key=iIulBulltgU6a56xZRHN4H3l9WmuAYTsLGpBGhQ2"
    },
    "id": "3856708",
    "neo_reference_id": "3856708",
    "name": "(2019 SF4)",
    "designation": "2019 SF4",
    "nasa_jpl_url": "http://ssd.jpl.nasa.gov/sbdb.cgi?sstr=3856708",
    "absolute_magnitude_h": 25.9,
    "estimated_diameter": {
        "kilometers": {
            "estimated_diameter_min": 0.0175612318,
            "estimated_diameter_max": 0.0392681082
        },
        "meters": {
            "estimated_diameter_min": 17.561231848,
            "estimated_diameter_max": 39.2681081809
        },
        "miles": {
            "estimated_diameter_min": 0.0109120402,
            "estimated_diameter_max": 0.0244000636
        },
        "feet": {
            "estimated_diameter_min": 57.6155918963,
            "estimated_diameter_max": 128.8323800441
        }
    },
    "is_potentially_hazardous_asteroid": false,
    "close_approach_data": [
        {
            "close_approach_date": "2019-09-15",
            "close_approach_date_full": "2019-Sep-15 16:00",
            "epoch_date_close_approach": 1568563200000,
            "relative_velocity": {
                "kilometers_per_second": "8.2413145381",
                "kilometers_per_hour": "29668.7323371645",
                "miles_per_hour": "18434.9964902787"
            },
            "miss_distance": {
                "astronomical": "0.0174789639",
                "lunar": "6.7993169571",
                "kilometers": "2614815.769246893",
                "miles": "1624771.1773694034"
            },
            "orbiting_body": "Earth"
        }
    ],
    "orbital_data": {
        "orbit_id": "7",
        "orbit_determination_date": "2019-12-03 19:58:00",
        "first_observation_date": "2019-09-25",
        "last_observation_date": "2019-10-08",
        "data_arc_in_days": 13,
        "observations_used": 25,
        "orbit_uncertainty": "8",
        "minimum_orbit_intersection": ".0132284",
        "jupiter_tisserand_invariant": "3.452",
        "epoch_osculation": "2458755.5",
        "eccentricity": ".5455371968375607",
        "semi_major_axis": "2.203161165949027",
        "inclination": "1.480377536097844",
        "ascending_node_longitude": "16.98430895199123",
        "orbital_period": "1194.449598210465",
        "perihelion_distance": "1.001254799295823",
        "perihelion_argument": "317.5921650058106",
        "aphelion_distance": "3.405067532602231",
        "perihelion_time": "2458727.868235342957",
        "mean_anomaly": "8.328049414088976",
        "mean_motion": ".3013940483879395",
        "equinox": "J2000",
        "orbit_class": {
            "orbit_class_type": "APO",
            "orbit_class_description": "Near-Earth asteroid orbits which cross the Earth’s orbit similar to that of 1862 Apollo",
            "orbit_class_range": "a (semi-major axis) > 1.0 AU; q (perihelion) < 1.017 AU"
        }
    },
    "is_sentry_object": false
}